{
"type": "FeatureCollection",
"name": "vuduciel",
"crs": { "type": "name", "properties": { "name": "urn:ogc:def:crs:OGC:1.3:CRS84" } },
"features": [
{ "type": "Feature", "properties": { "id": 1, "nom": "Mont Saint-Michel", "emprise": 1000 }, "geometry": { "type": "Point", "coordinates": [ -1.511170244560358, 48.636040664524224 ] } },
{ "type": "Feature", "properties": { "id": 2, "nom": "Chateau d'Angers", "emprise": 1000 }, "geometry": { "type": "Point", "coordinates": [ -0.559823180965935, 47.4700237497917 ] } },
{ "type": "Feature", "properties": { "id": 3, "nom": "Tour Eiffel", "emprise": 400 }, "geometry": { "type": "Point", "coordinates": [ 2.294538481848162, 48.85824213249383 ] } },
{ "type": "Feature", "properties": { "id": 4, "nom": "Sacre Coeur", "emprise": 400 }, "geometry": { "type": "Point", "coordinates": [ 2.343106709095942, 48.88666308110504 ] } },
{ "type": "Feature", "properties": { "id": 5, "nom": "Notre-Dame-de-Fourviere", "emprise": 200 }, "geometry": { "type": "Point", "coordinates": [ 4.822537596693034, 45.76224083005198 ] } },
{ "type": "Feature", "properties": { "id": 6, "nom": "Château de Versailles", "emprise": 1000 }, "geometry": { "type": "Point", "coordinates": [ 2.120277777, 48.804722222 ] } },
{ "type": "Feature", "properties": { "id": 7, "nom": "Château de Chambord", "emprise": 800 }, "geometry": { "type": "Point", "coordinates": [ 1.517222222, 47.616111111 ] } },
{ "type": "Feature", "properties": { "id": 8, "nom": "Château de Chenonceau", "emprise": 400 }, "geometry": { "type": "Point", "coordinates": [ 1.0706, 47.325 ] } },
{ "type": "Feature", "properties": { "id": 9, "nom": "Château de Vaux-le-Vicomte", "emprise": 800 }, "geometry": { "type": "Point", "coordinates": [ 2.714154, 48.565832 ] } },
{ "type": "Feature", "properties": { "id": 10, "nom": "Château de Blois", "emprise": 400 }, "geometry": { "type": "Point", "coordinates": [ 1.33095, 47.585501 ] } },
{ "type": "Feature", "properties": { "id": 11, "nom": "Château d'Amboise", "emprise": 400 }, "geometry": { "type": "Point", "coordinates": [ 0.986, 47.413722222 ] } },
{ "type": "Feature", "properties": { "id": 12, "nom": "Château de Chantilly", "emprise": 800 }, "geometry": { "type": "Point", "coordinates": [ 2.485833333, 49.193888888 ] } },
{ "type": "Feature", "properties": { "id": 13, "nom": "Château d'Azay-le-Rideau", "emprise": 400 }, "geometry": { "type": "Point", "coordinates": [ 0.465791666, 47.259005555 ] } },
{ "type": "Feature", "properties": { "id": 14, "nom": "Château de Villandry", "emprise": 400 }, "geometry": { "type": "Point", "coordinates": [ 0.514479, 47.340511 ] } },
{ "type": "Feature", "properties": { "id": 15, "nom": "Château de Cheverny", "emprise": 400 }, "geometry": { "type": "Point", "coordinates": [ 1.458055555, 47.500277777 ] } },
{ "type": "Feature", "properties": { "id": 16, "nom": "Château de Chaumont-sur-Loire", "emprise": 400 }, "geometry": { "type": "Point", "coordinates": [ 1.181944444, 47.479166666 ] } },
{ "type": "Feature", "properties": { "id": 17, "nom": "Château d'Ussé", "emprise": 400 }, "geometry": { "type": "Point", "coordinates": [ 0.291111111, 47.249722222 ] } },
{ "type": "Feature", "properties": { "id": 18, "nom": "Château de Langeais", "emprise": 200 }, "geometry": { "type": "Point", "coordinates": [ 0.4061, 47.3248 ] } },
{ "type": "Feature", "properties": { "id": 19, "nom": "Château de Loches", "emprise": 400 }, "geometry": { "type": "Point", "coordinates": [ 0.996858, 47.124759 ] } },
{ "type": "Feature", "properties": { "id": 20, "nom": "Forteresse royale de Chinon", "emprise": 400 }, "geometry": { "type": "Point", "coordinates": [ 0.236111111, 47.168055555 ] } },
{ "type": "Feature", "properties": { "id": 21, "nom": "Château de Sully-sur-Loire", "emprise": 400 }, "geometry": { "type": "Point", "coordinates": [ 2.3752, 47.7677 ] } },
{ "type": "Feature", "properties": { "id": 22, "nom": "Château de Valençay", "emprise": 400 }, "geometry": { "type": "Point", "coordinates": [ 1.563333333, 47.1575 ] } },
{ "type": "Feature", "properties": { "id": 23, "nom": "Château de Fontainebleau", "emprise": 800 }, "geometry": { "type": "Point", "coordinates": [ 2.700555555, 48.402222222 ] } },
{ "type": "Feature", "properties": { "id": 24, "nom": "Château de Vincennes", "emprise": 400 }, "geometry": { "type": "Point", "coordinates": [ 2.435833333, 48.842777777 ] } },
{ "type": "Feature", "properties": { "id": 25, "nom": "Château de Saint-Germain-en-Laye", "emprise": 400 }, "geometry": { "type": "Point", "coordinates": [ 2.096388888, 48.898055555 ] } },
{ "type": "Feature", "properties": { "id": 26, "nom": "Château de Rambouillet", "emprise": 400 }, "geometry": { "type": "Point", "coordinates": [ 1.817777777, 48.645555555 ] } },
{ "type": "Feature", "properties": { "id": 27, "nom": "Château d'Écouen", "emprise": 400 }, "geometry": { "type": "Point", "coordinates": [ 2.378333333, 49.0175 ] } },
{ "type": "Feature", "properties": { "id": 28, "nom": "Château de Pierrefonds", "emprise": 400 }, "geometry": { "type": "Point", "coordinates": [ 2.980278, 49.346944 ] } },
{ "type": "Feature", "properties": { "id": 29, "nom": "Château de Guédelon", "emprise": 200 }, "geometry": { "type": "Point", "coordinates": [ 3.15583, 47.58333 ] } },
{ "type": "Feature", "properties": { "id": 30, "nom": "Château du Haut-Kœnigsbourg", "emprise": 400 }, "geometry": { "type": "Point", "coordinates": [ 7.344166666, 48.249444444 ] } },
{ "type": "Feature", "properties": { "id": 31, "nom": "Château de Saumur", "emprise": 400 }, "geometry": { "type": "Point", "coordinates": [ -0.0725, 47.256111111 ] } },
{ "type": "Feature", "properties": { "id": 32, "nom": "Château-Gaillard", "emprise": 400 }, "geometry": { "type": "Point", "coordinates": [ 1.402752777, 49.238127777 ] } },
{ "type": "Feature", "properties": { "id": 33, "nom": "Château de Montségur", "emprise": 400 }, "geometry": { "type": "Point", "coordinates": [ 1.8325, 42.875555555 ] } },
{ "type": "Feature", "properties": { "id": 34, "nom": "Château de Foix", "emprise": 400 }, "geometry": { "type": "Point", "coordinates": [ 1.605, 42.965555555 ] } },
{ "type": "Feature", "properties": { "id": 35, "nom": "Château de Quéribus", "emprise": 400 }, "geometry": { "type": "Point", "coordinates": [ 2.621666666, 42.836666666 ] } },
{ "type": "Feature", "properties": { "id": 36, "nom": "Château de Peyrepertuse", "emprise": 400 }, "geometry": { "type": "Point", "coordinates": [ 2.55537, 42.8708 ] } },
{ "type": "Feature", "properties": { "id": 37, "nom": "Château de Bonaguil", "emprise": 400 }, "geometry": { "type": "Point", "coordinates": [ 1.014318, 44.538118 ] } },
{ "type": "Feature", "properties": { "id": 38, "nom": "Château de Beynac", "emprise": 400 }, "geometry": { "type": "Point", "coordinates": [ 1.14528, 44.84028 ] } },
{ "type": "Feature", "properties": { "id": 39, "nom": "Château de Castelnaud", "emprise": 400 }, "geometry": { "type": "Point", "coordinates": [ 1.148889, 44.815833 ] } },
{ "type": "Feature", "properties": { "id": 40, "nom": "Château de Fougères", "emprise": 400 }, "geometry": { "type": "Point", "coordinates": [ -1.209444, 48.3536 ] } },
{ "type": "Feature", "properties": { "id": 41, "nom": "Château de Josselin", "emprise": 400 }, "geometry": { "type": "Point", "coordinates": [ -2.5475, 47.952361111 ] } },
{ "type": "Feature", "properties": { "id": 42, "nom": "Château de Vitré", "emprise": 400 }, "geometry": { "type": "Point", "coordinates": [ -1.215277777, 48.124444444 ] } },
{ "type": "Feature", "properties": { "id": 43, "nom": "Château de Sedan", "emprise": 400 }, "geometry": { "type": "Point", "coordinates": [ 4.949444444, 49.701944444 ] } },
{ "type": "Feature", "properties": { "id": 44, "nom": "Forteresse de Salses", "emprise": 400 }, "geometry": { "type": "Point", "coordinates": [ 2.918333333, 42.839722222 ] } },
{ "type": "Feature", "properties": { "id": 45, "nom": "Château des ducs de Bretagne", "emprise": 400 }, "geometry": { "type": "Point", "coordinates": [ -1.54914, 47.21614 ] } },
{ "type": "Feature", "properties": { "id": 46, "nom": "Château d'If", "emprise": 400 }, "geometry": { "type": "Point", "coordinates": [ 5.325138888, 43.279861111 ] } },
{ "type": "Feature", "properties": { "id": 47, "nom": "Citadelle de Besançon", "emprise": 800 }, "geometry": { "type": "Point", "coordinates": [ 6.0325, 47.231389 ] } },
{ "type": "Feature", "properties": { "id": 48, "nom": "Citadelle de Lille", "emprise": 1000 }, "geometry": { "type": "Point", "coordinates": [ 3.044444, 50.641111 ] } },
{ "type": "Feature", "properties": { "id": 49, "nom": "Citadelle de Blaye", "emprise": 800 }, "geometry": { "type": "Point", "coordinates": [ -0.666475, 45.129242 ] } },
{ "type": "Feature", "properties": { "id": 50, "nom": "Cité de Carcassonne", "emprise": 800 }, "geometry": { "type": "Point", "coordinates": [ 2.363788, 43.206439 ] } },
{ "type": "Feature", "properties": { "id": 51, "nom": "Saint-Malo intra-muros", "emprise": 800 }, "geometry": { "type": "Point", "coordinates": [ -2.026111111, 48.649444444 ] } },
{ "type": "Feature", "properties": { "id": 52, "nom": "Aigues-Mortes", "emprise": 800 }, "geometry": { "type": "Point", "coordinates": [ 4.1925, 43.566666666 ] } },
{ "type": "Feature", "properties": { "id": 53, "nom": "Neuf-Brisach", "emprise": 1000 }, "geometry": { "type": "Point", "coordinates": [ 7.528333333, 48.018055555 ] } },
{ "type": "Feature", "properties": { "id": 54, "nom": "Villefranche-de-Conflent", "emprise": 400 }, "geometry": { "type": "Point", "coordinates": [ 2.367777777, 42.587222222 ] } },
{ "type": "Feature", "properties": { "id": 55, "nom": "Mont-Louis", "emprise": 600 }, "geometry": { "type": "Point", "coordinates": [ 2.122777777, 42.508055555 ] } },
{ "type": "Feature", "properties": { "id": 56, "nom": "Ville close de Concarneau", "emprise": 600 }, "geometry": { "type": "Point", "coordinates": [ -3.918888888, 47.875277777 ] } },
{ "type": "Feature", "properties": { "id": 57, "nom": "Provins", "emprise": 1000 }, "geometry": { "type": "Point", "coordinates": [ 3.299444444, 48.558888888 ] } },
{ "type": "Feature", "properties": { "id": 58, "nom": "Bonifacio", "emprise": 1000 }, "geometry": { "type": "Point", "coordinates": [ 9.160555555, 41.388055555 ] } },
{ "type": "Feature", "properties": { "id": 59, "nom": "Riquewihr", "emprise": 600 }, "geometry": { "type": "Point", "coordinates": [ 7.296944444, 48.166388888 ] } },
{ "type": "Feature", "properties": { "id": 60, "nom": "Rocamadour", "emprise": 600 }, "geometry": { "type": "Point", "coordinates": [ 1.617777777, 44.799444444 ] } },
{ "type": "Feature", "properties": { "id": 61, "nom": "Gordes", "emprise": 600 }, "geometry": { "type": "Point", "coordinates": [ 5.200277777, 43.911111111 ] } },
{ "type": "Feature", "properties": { "id": 62, "nom": "Les Baux-de-Provence", "emprise": 600 }, "geometry": { "type": "Point", "coordinates": [ 4.795277777, 43.743888888 ] } },
{ "type": "Feature", "properties": { "id": 63, "nom": "Cathédrale de Chartres", "emprise": 400 }, "geometry": { "type": "Point", "coordinates": [ 1.487777777, 48.447777777 ] } },
{ "type": "Feature", "properties": { "id": 64, "nom": "Cathédrale d'Amiens", "emprise": 400 }, "geometry": { "type": "Point", "coordinates": [ 2.3021, 49.89457 ] } },
{ "type": "Feature", "properties": { "id": 65, "nom": "Cathédrale de Reims", "emprise": 400 }, "geometry": { "type": "Point", "coordinates": [ 4.034166666, 49.253888888 ] } },
{ "type": "Feature", "properties": { "id": 66, "nom": "Cathédrale de Rouen", "emprise": 400 }, "geometry": { "type": "Point", "coordinates": [ 1.095, 49.4402 ] } },
{ "type": "Feature", "properties": { "id": 67, "nom": "Cathédrale de Strasbourg", "emprise": 400 }, "geometry": { "type": "Point", "coordinates": [ 7.75105618, 48.581889595 ] } },
{ "type": "Feature", "properties": { "id": 68, "nom": "Cathédrale de Laon", "emprise": 400 }, "geometry": { "type": "Point", "coordinates": [ 3.625, 49.5643 ] } },
{ "type": "Feature", "properties": { "id": 69, "nom": "Cathédrale de Beauvais", "emprise": 400 }, "geometry": { "type": "Point", "coordinates": [ 2.081388888, 49.4325 ] } },
{ "type": "Feature", "properties": { "id": 70, "nom": "Cathédrale de Metz", "emprise": 400 }, "geometry": { "type": "Point", "coordinates": [ 6.175556, 49.120278 ] } },
{ "type": "Feature", "properties": { "id": 71, "nom": "Cathédrale de Bourges", "emprise": 400 }, "geometry": { "type": "Point", "coordinates": [ 2.39917, 47.08222 ] } },
{ "type": "Feature", "properties": { "id": 72, "nom": "Cathédrale Sainte-Cécile d'Albi", "emprise": 400 }, "geometry": { "type": "Point", "coordinates": [ 2.14256989, 43.928485106 ] } },
{ "type": "Feature", "properties": { "id": 73, "nom": "Cathédrale Saint-Front de Périgueux", "emprise": 400 }, "geometry": { "type": "Point", "coordinates": [ 0.722777777, 45.183611111 ] } },
{ "type": "Feature", "properties": { "id": 74, "nom": "Cathédrale d'Auch", "emprise": 400 }, "geometry": { "type": "Point", "coordinates": [ 0.585833333, 43.646388888 ] } },
{ "type": "Feature", "properties": { "id": 75, "nom": "Cathédrale de Bayeux", "emprise": 400 }, "geometry": { "type": "Point", "coordinates": [ -0.703333333, 49.275555555 ] } },
{ "type": "Feature", "properties": { "id": 76, "nom": "Basilique de Saint-Denis", "emprise": 400 }, "geometry": { "type": "Point", "coordinates": [ 2.359722222, 48.935555555 ] } },
{ "type": "Feature", "properties": { "id": 77, "nom": "Basilique de Vézelay", "emprise": 400 }, "geometry": { "type": "Point", "coordinates": [ 3.748333333, 47.466388888 ] } },
{ "type": "Feature", "properties": { "id": 78, "nom": "Basilique Saint-Sernin", "emprise": 400 }, "geometry": { "type": "Point", "coordinates": [ 1.442126, 43.608485 ] } },
{ "type": "Feature", "properties": { "id": 79, "nom": "Notre-Dame-de-la-Garde", "emprise": 400 }, "geometry": { "type": "Point", "coordinates": [ 5.371232414, 43.283949745 ] } },
{ "type": "Feature", "properties": { "id": 80, "nom": "Basilique de Lisieux", "emprise": 400 }, "geometry": { "type": "Point", "coordinates": [ 0.2366209, 49.1395986 ] } },
{ "type": "Feature", "properties": { "id": 81, "nom": "Abbaye de Cluny", "emprise": 400 }, "geometry": { "type": "Point", "coordinates": [ 4.659221, 46.434051 ] } },
{ "type": "Feature", "properties": { "id": 82, "nom": "Abbaye de Fontenay", "emprise": 400 }, "geometry": { "type": "Point", "coordinates": [ 4.389327, 47.639661 ] } },
{ "type": "Feature", "properties": { "id": 83, "nom": "Abbaye de Sénanque", "emprise": 400 }, "geometry": { "type": "Point", "coordinates": [ 5.186944, 43.928333 ] } },
{ "type": "Feature", "properties": { "id": 84, "nom": "Abbaye du Thoronet", "emprise": 400 }, "geometry": { "type": "Point", "coordinates": [ 6.263888888, 43.460277777 ] } },
{ "type": "Feature", "properties": { "id": 85, "nom": "Abbaye de Jumièges", "emprise": 400 }, "geometry": { "type": "Point", "coordinates": [ 0.819166666, 49.431944444 ] } },
{ "type": "Feature", "properties": { "id": 86, "nom": "Abbatiale de Conques", "emprise": 400 }, "geometry": { "type": "Point", "coordinates": [ 2.397873, 44.599314 ] } },
{ "type": "Feature", "properties": { "id": 87, "nom": "Abbaye d'Hautecombe", "emprise": 400 }, "geometry": { "type": "Point", "coordinates": [ 5.839722222, 45.752777777 ] } },
{ "type": "Feature", "properties": { "id": 88, "nom": "Abbaye aux Hommes de Caen", "emprise": 400 }, "geometry": { "type": "Point", "coordinates": [ -0.372777777, 49.181666666 ] } },
{ "type": "Feature", "properties": { "id": 89, "nom": "Saline royale d'Arc-et-Senans", "emprise": 600 }, "geometry": { "type": "Point", "coordinates": [ 5.777778, 47.032778 ] } },
{ "type": "Feature", "properties": { "id": 90, "nom": "Pont du Gard", "emprise": 600 }, "geometry": { "type": "Point", "coordinates": [ 4.5355, 43.9473 ] } },
{ "type": "Feature", "properties": { "id": 91, "nom": "Arènes de Nîmes", "emprise": 400 }, "geometry": { "type": "Point", "coordinates": [ 4.35963, 43.83489 ] } },
{ "type": "Feature", "properties": { "id": 92, "nom": "Maison carrée de Nîmes", "emprise": 200 }, "geometry": { "type": "Point", "coordinates": [ 4.356111, 43.838194 ] } },
{ "type": "Feature", "properties": { "id": 93, "nom": "Arènes d'Arles", "emprise": 400 }, "geometry": { "type": "Point", "coordinates": [ 4.630924, 43.677746 ] } },
{ "type": "Feature", "properties": { "id": 94, "nom": "Théâtre antique d'Orange", "emprise": 400 }, "geometry": { "type": "Point", "coordinates": [ 4.808895, 44.135754 ] } },
{ "type": "Feature", "properties": { "id": 95, "nom": "Trophée des Alpes", "emprise": 200 }, "geometry": { "type": "Point", "coordinates": [ 7.401802777, 43.744777777 ] } },
{ "type": "Feature", "properties": { "id": 96, "nom": "Alignements de Carnac", "emprise": 1000 }, "geometry": { "type": "Point", "coordinates": [ -3.079722222, 47.593333333 ] } },
{ "type": "Feature", "properties": { "id": 97, "nom": "Alésia", "emprise": 1000 }, "geometry": { "type": "Point", "coordinates": [ 4.500555555, 47.539166666 ] } },
{ "type": "Feature", "properties": { "id": 98, "nom": "Palais des papes d'Avignon", "emprise": 300 }, "geometry": { "type": "Point", "coordinates": [ 4.8075, 43.9508 ] } },
{ "type": "Feature", "properties": { "id": 99, "nom": "Pont d'Avignon", "emprise": 300 }, "geometry": { "type": "Point", "coordinates": [ 4.805, 43.953888888 ] } },
{ "type": "Feature", "properties": { "id": 100, "nom": "Palais du Louvre", "emprise": 800 }, "geometry": { "type": "Point", "coordinates": [ 2.335833333, 48.861111111 ] } },
{ "type": "Feature", "properties": { "id": 101, "nom": "Musée d'Orsay", "emprise": 400 }, "geometry": { "type": "Point", "coordinates": [ 2.326527, 48.859972 ] } },
{ "type": "Feature", "properties": { "id": 102, "nom": "Centre Pompidou", "emprise": 200 }, "geometry": { "type": "Point", "coordinates": [ 2.352245, 48.860642 ] } },
{ "type": "Feature", "properties": { "id": 103, "nom": "Panthéon", "emprise": 200 }, "geometry": { "type": "Point", "coordinates": [ 2.3461054, 48.846198 ] } },
{ "type": "Feature", "properties": { "id": 104, "nom": "Arc de triomphe", "emprise": 400 }, "geometry": { "type": "Point", "coordinates": [ 2.29504, 48.87378 ] } },
{ "type": "Feature", "properties": { "id": 105, "nom": "Hôtel des Invalides", "emprise": 600 }, "geometry": { "type": "Point", "coordinates": [ 2.3125, 48.855 ] } },
{ "type": "Feature", "properties": { "id": 106, "nom": "Opéra Garnier", "emprise": 200 }, "geometry": { "type": "Point", "coordinates": [ 2.331666666, 48.871944444 ] } },
{ "type": "Feature", "properties": { "id": 107, "nom": "Grand Palais", "emprise": 400 }, "geometry": { "type": "Point", "coordinates": [ 2.3125, 48.866111 ] } },
{ "type": "Feature", "properties": { "id": 108, "nom": "Place de la Concorde", "emprise": 400 }, "geometry": { "type": "Point", "coordinates": [ 2.3212357, 48.8656331 ] } },
{ "type": "Feature", "properties": { "id": 109, "nom": "Place Vendôme", "emprise": 200 }, "geometry": { "type": "Point", "coordinates": [ 2.329444444, 48.8675 ] } },
{ "type": "Feature", "properties": { "id": 110, "nom": "Place des Vosges", "emprise": 200 }, "geometry": { "type": "Point", "coordinates": [ 2.365555555, 48.855555555 ] } },
{ "type": "Feature", "properties": { "id": 111, "nom": "Place Stanislas", "emprise": 200 }, "geometry": { "type": "Point", "coordinates": [ 6.183333333, 48.693611111 ] } },
{ "type": "Feature", "properties": { "id": 112, "nom": "Capitole de Toulouse", "emprise": 200 }, "geometry": { "type": "Point", "coordinates": [ 1.444, 43.604444444 ] } },
{ "type": "Feature", "properties": { "id": 113, "nom": "Grande Chartreuse", "emprise": 400 }, "geometry": { "type": "Point", "coordinates": [ 5.793611111, 45.363333333 ] } },
{ "type": "Feature", "properties": { "id": 114, "nom": "Port de la Lune, Bordeaux", "emprise": 1000 }, "geometry": { "type": "Point", "coordinates": [ -0.572222222, 44.838888888 ] } },
{ "type": "Feature", "properties": { "id": 115, "nom": "Palais Longchamp", "emprise": 400 }, "geometry": { "type": "Point", "coordinates": [ 5.3945, 43.3043 ] } },
{ "type": "Feature", "properties": { "id": 116, "nom": "Hospices de Beaune", "emprise": 200 }, "geometry": { "type": "Point", "coordinates": [ 4.836666666, 47.021944444 ] } },
{ "type": "Feature", "properties": { "id": 117, "nom": "Vieux-Port de Marseille", "emprise": 1000 }, "geometry": { "type": "Point", "coordinates": [ 5.37083, 43.29472 ] } },
{ "type": "Feature", "properties": { "id": 118, "nom": "Tour Montparnasse", "emprise": 400 }, "geometry": { "type": "Point", "coordinates": [ 2.32198, 48.84211 ] } },
{ "type": "Feature", "properties": { "id": 119, "nom": "Villa Savoye", "emprise": 200 }, "geometry": { "type": "Point", "coordinates": [ 2.028333333, 48.924444444 ] } },
{ "type": "Feature", "properties": { "id": 120, "nom": "Fondation Louis Vuitton", "emprise": 400 }, "geometry": { "type": "Point", "coordinates": [ 2.26333333, 48.87666667 ] } },
{ "type": "Feature", "properties": { "id": 121, "nom": "Institut du monde arabe", "emprise": 200 }, "geometry": { "type": "Point", "coordinates": [ 2.357040967, 48.848903228 ] } },
{ "type": "Feature", "properties": { "id": 122, "nom": "Centre Pompidou-Metz", "emprise": 400 }, "geometry": { "type": "Point", "coordinates": [ 6.18, 49.108056 ] } },
{ "type": "Feature", "properties": { "id": 123, "nom": "Cité du Vin", "emprise": 400 }, "geometry": { "type": "Point", "coordinates": [ -0.550277777, 44.8625 ] } },
{ "type": "Feature", "properties": { "id": 124, "nom": "Palais idéal du facteur Cheval", "emprise": 200 }, "geometry": { "type": "Point", "coordinates": [ 5.028506, 45.256267 ] } },
{ "type": "Feature", "properties": { "id": 125, "nom": "Cité de l'espace", "emprise": 400 }, "geometry": { "type": "Point", "coordinates": [ 1.49327778, 43.58691667 ] } },
{ "type": "Feature", "properties": { "id": 126, "nom": "Viaduc de Millau", "emprise": 3000 }, "geometry": { "type": "Point", "coordinates": [ 3.0225, 44.080277777 ] } },
{ "type": "Feature", "properties": { "id": 127, "nom": "Viaduc de Garabit", "emprise": 800 }, "geometry": { "type": "Point", "coordinates": [ 3.177216, 44.975401 ] } },
{ "type": "Feature", "properties": { "id": 128, "nom": "Pont de Normandie", "emprise": 2500 }, "geometry": { "type": "Point", "coordinates": [ 0.273888888, 49.432222222 ] } },
{ "type": "Feature", "properties": { "id": 129, "nom": "Pont-canal de Briare", "emprise": 800 }, "geometry": { "type": "Point", "coordinates": [ 2.736917, 47.631934 ] } },
{ "type": "Feature", "properties": { "id": 130, "nom": "Écluses de Fonseranes", "emprise": 400 }, "geometry": { "type": "Point", "coordinates": [ 3.199456, 43.330531 ] } },
{ "type": "Feature", "properties": { "id": 131, "nom": "Barrage de Serre-Ponçon", "emprise": 1000 }, "geometry": { "type": "Point", "coordinates": [ 6.2707995, 44.4717173 ] } },
{ "type": "Feature", "properties": { "id": 132, "nom": "Phare de Cordouan", "emprise": 400 }, "geometry": { "type": "Point", "coordinates": [ -1.1733254, 45.5863198 ] } },
{ "type": "Feature", "properties": { "id": 133, "nom": "Phare du Créac'h", "emprise": 400 }, "geometry": { "type": "Point", "coordinates": [ -5.12901, 48.4592 ] } },
{ "type": "Feature", "properties": { "id": 134, "nom": "Stade de France", "emprise": 600 }, "geometry": { "type": "Point", "coordinates": [ 2.36, 48.924444444 ] } },
{ "type": "Feature", "properties": { "id": 135, "nom": "Stade Vélodrome", "emprise": 600 }, "geometry": { "type": "Point", "coordinates": [ 5.394907, 43.269241 ] } },
{ "type": "Feature", "properties": { "id": 136, "nom": "Stade Pierre-Mauroy", "emprise": 600 }, "geometry": { "type": "Point", "coordinates": [ 3.130631, 50.611962 ] } },
{ "type": "Feature", "properties": { "id": 137, "nom": "Allianz Riviera", "emprise": 600 }, "geometry": { "type": "Point", "coordinates": [ 7.19262, 43.70513 ] } },
{ "type": "Feature", "properties": { "id": 138, "nom": "Stade de la Beaujoire", "emprise": 600 }, "geometry": { "type": "Point", "coordinates": [ -1.52466, 47.2561 ] } },
{ "type": "Feature", "properties": { "id": 139, "nom": "Stade Roland-Garros", "emprise": 600 }, "geometry": { "type": "Point", "coordinates": [ 2.249374, 48.846282 ] } },
{ "type": "Feature", "properties": { "id": 140, "nom": "Hippodrome de Longchamp", "emprise": 1500 }, "geometry": { "type": "Point", "coordinates": [ 2.2296328, 48.8587832 ] } },
{ "type": "Feature", "properties": { "id": 141, "nom": "Circuit des 24 Heures du Mans", "emprise": 2000 }, "geometry": { "type": "Point", "coordinates": [ 0.207530555, 47.949861111 ] } },
{ "type": "Feature", "properties": { "id": 142, "nom": "Circuit Paul-Ricard", "emprise": 2000 }, "geometry": { "type": "Point", "coordinates": [ 5.791666666, 43.250555555 ] } },
{ "type": "Feature", "properties": { "id": 143, "nom": "Disneyland Paris", "emprise": 1500 }, "geometry": { "type": "Point", "coordinates": [ 2.7818, 48.868719444 ] } },
{ "type": "Feature", "properties": { "id": 144, "nom": "Parc Astérix", "emprise": 1000 }, "geometry": { "type": "Point", "coordinates": [ 2.571666666, 49.135277777 ] } },
{ "type": "Feature", "properties": { "id": 145, "nom": "Futuroscope", "emprise": 1000 }, "geometry": { "type": "Point", "coordinates": [ 0.368888888, 46.669166666 ] } },
{ "type": "Feature", "properties": { "id": 146, "nom": "Puy du Fou", "emprise": 1500 }, "geometry": { "type": "Point", "coordinates": [ -0.931944444, 46.893333333 ] } },
{ "type": "Feature", "properties": { "id": 147, "nom": "Aéroport Charles-de-Gaulle", "emprise": 2000 }, "geometry": { "type": "Point", "coordinates": [ 2.547777777, 49.009722222 ] } },
{ "type": "Feature", "properties": { "id": 148, "nom": "Aéroport d'Orly", "emprise": 2000 }, "geometry": { "type": "Point", "coordinates": [ 2.379444, 48.723333 ] } },
{ "type": "Feature", "properties": { "id": 149, "nom": "Aéroport de Nice-Côte d'Azur", "emprise": 2000 }, "geometry": { "type": "Point", "coordinates": [ 7.215, 43.665277777 ] } },
{ "type": "Feature", "properties": { "id": 150, "nom": "Ossuaire de Douaumont", "emprise": 400 }, "geometry": { "type": "Point", "coordinates": [ 5.423671, 49.20826 ] } },
{ "type": "Feature", "properties": { "id": 151, "nom": "Mémorial canadien de Vimy", "emprise": 400 }, "geometry": { "type": "Point", "coordinates": [ 2.773611111, 50.379444444 ] } },
{ "type": "Feature", "properties": { "id": 152, "nom": "Mémorial de Thiepval", "emprise": 400 }, "geometry": { "type": "Point", "coordinates": [ 2.685833333, 50.050555555 ] } },
{ "type": "Feature", "properties": { "id": 153, "nom": "Pointe du Hoc", "emprise": 600 }, "geometry": { "type": "Point", "coordinates": [ -0.989394, 49.397857 ] } },
{ "type": "Feature", "properties": { "id": 154, "nom": "Dune du Pilat", "emprise": 2000 }, "geometry": { "type": "Point", "coordinates": [ -1.21166667, 44.59 ] } },
{ "type": "Feature", "properties": { "id": 155, "nom": "Puy de Dôme", "emprise": 1500 }, "geometry": { "type": "Point", "coordinates": [ 2.9624, 45.772 ] } },
{ "type": "Feature", "properties": { "id": 156, "nom": "Pointe du Raz", "emprise": 1000 }, "geometry": { "type": "Point", "coordinates": [ -4.741111111, 48.040277777 ] } },
{ "type": "Feature", "properties": { "id": 157, "nom": "Cap Fréhel", "emprise": 1000 }, "geometry": { "type": "Point", "coordinates": [ -2.31805556, 48.68333333 ] } },
{ "type": "Feature", "properties": { "id": 158, "nom": "Falaises d'Étretat", "emprise": 1500 }, "geometry": { "type": "Point", "coordinates": [ 0.206666666, 49.706388888 ] } },
{ "type": "Feature", "properties": { "id": 159, "nom": "Cirque de Navacelles", "emprise": 2000 }, "geometry": { "type": "Point", "coordinates": [ 3.50972, 43.89306 ] } },
{ "type": "Feature", "properties": { "id": 160, "nom": "Mer de Glace", "emprise": 2000 }, "geometry": { "type": "Point", "coordinates": [ 6.937222222, 45.916111111 ] } },
{ "type": "Feature", "properties": { "id": 161, "nom": "Aiguille du Midi", "emprise": 600 }, "geometry": { "type": "Point", "coordinates": [ 6.8875, 45.878888888 ] } },
{ "type": "Feature", "properties": { "id": 162, "nom": "Pic du Midi de Bigorre", "emprise": 600 }, "geometry": { "type": "Point", "coordinates": [ 0.141111111, 42.937222222 ] } },
{ "type": "Feature", "properties": { "id": 163, "nom": "Sommet du Mont Ventoux", "emprise": 600 }, "geometry": { "type": "Point", "coordinates": [ 5.283333333, 44.166666666 ] } }
]
}
